LIZZIESAT-2 (LS-2)      
1 62383U 24247G   26068.49140277  .00009388  00000+0  34517-3 0  9997
2 62383  44.9909 117.0823 0004092 327.5136  32.5495 15.28222796 67716
STARLINK-34234          
1 64248U 25119R   26068.06745975  .00016564  00000+0  60997-3 0  9992
2 64248  43.0018 310.6096 0001591 264.1846  95.8825 15.27585996 44073
